*******************************************************************************
Ephemeris / WWW_USER Mon Mar 24 09:28:44 2025 Pasadena, USA      / Horizons    
*******************************************************************************
Target body name: ASASSN (C/2017 O1)              {source: JPL#21}
Center body name: Earth (399)                     {source: DE441}
Center-site name: Mauna Kea
*******************************************************************************
Start time      : A.D. 2018-Sep-04 04:44:00.0000 UT      
Stop  time      : A.D. 2018-Sep-04 15:57:00.0000 UT      
Step-size       : 1 minutes
*******************************************************************************
Target pole/equ : undefined
Target radii    : undefined                                                    
Center geodetic : 204.5278, 19.8260847, 4.21024   {E-lon(deg),Lat(deg),Alt(km)}
Center cylindric: 204.5278, 6006.35451, 2151.0229 {E-lon(deg),Dxy(km),Dz(km)}
Center pole/equ : ITRF93                          {East-longitude positive}
Center radii    : 6378.137, 6378.137, 6356.752 km {Equator_a, b, pole_c}       
Target primary  : Sun
Vis. interferer : MOON (R_eq= 1737.400) km        {source: DE441}
Rel. light bend : Sun                             {source: DE441}
Rel. lght bnd GM: 1.3271E+11 km^3/s^2                                          
Small-body perts: Yes                             {source: SB441-N16}
Atmos refraction: NO (AIRLESS)
RA format       : HMS
Time format     : CAL 
Calendar mode   : Mixed Julian/Gregorian
RTS-only print  : NO       
EOP file        : eop.250321.p250617                                           
EOP coverage    : DATA-BASED 1962-JAN-20 TO 2025-MAR-21. PREDICTS-> 2025-JUN-16
Units conversion: 1 au= 149597870.700 km, c= 299792.458 km/s, 1 day= 86400.0 s 
Table cut-offs 1: Elevation (-90.0deg=NO ),Airmass (>38.000=NO), Daylight (YES)
Table cut-offs 2: Solar elongation (  0.0,180.0=NO ),Local Hour Angle( 0.0=NO )
Table cut-offs 3: RA/DEC angular rate (     0.0=NO )                           
*******************************************************************************
Initial IAU76/J2000 heliocentric ecliptic osculating elements (au, days, deg.):
  EPOCH=  2458039.5 ! 2017-Oct-13.0000000 (TDB)    RMSW= n.a.                  
   EC= .9964254882304144   QR= 1.498687032290766   TP= 2458041.2851755521      
   OM= 25.80948799039273   W= 20.90785287564418    IN= 39.84841297991522       
  Equivalent ICRF heliocentric cartesian coordinates (au, au/d):
   X= 1.103880574170232E+00  Y= 7.544591652134763E-01  Z= 6.774428678789283E-01
  VX=-1.240653547490291E-02 VY= 4.322571932715848E-03 VZ= 1.488380440184248E-02
Comet physical (GM= km^3/s^2; RAD= km):                                        
   GM= n.a.                RAD= n.a.                                           
   M1=  12.4     M2=  n.a.     k1=  8.75   k2= n.a.     PHCOF= n.a.            
*******************************************************************************
 Date__(UT)__HR:MN     R.A._________(ICRF)_________DEC
******************************************************
$$SOE
 2018-Sep-04 08:54     11 32 23.311828 +30 03 29.98331
 2018-Sep-04 08:55     11 32 23.355892 +30 03 29.64266
 2018-Sep-04 08:56     11 32 23.399957 +30 03 29.30202
 2018-Sep-04 08:57     11 32 23.444023 +30 03 28.96140
 2018-Sep-04 08:58     11 32 23.488090 +30 03 28.62080
 2018-Sep-04 08:59     11 32 23.532159 +30 03 28.28021
 2018-Sep-04 09:00     11 32 23.576228 +30 03 27.93964
 2018-Sep-04 09:01     11 32 23.620299 +30 03 27.59908
 2018-Sep-04 09:02     11 32 23.664371 +30 03 27.25854
 2018-Sep-04 09:03     11 32 23.708443 +30 03 26.91801
 2018-Sep-04 09:04     11 32 23.752517 +30 03 26.57750
 2018-Sep-04 09:05     11 32 23.796592 +30 03 26.23700
 2018-Sep-04 09:06     11 32 23.840668 +30 03 25.89652
 2018-Sep-04 09:07     11 32 23.884745 +30 03 25.55606
 2018-Sep-04 09:08     11 32 23.928823 +30 03 25.21561
 2018-Sep-04 09:09     11 32 23.972902 +30 03 24.87518
 2018-Sep-04 09:10     11 32 24.016982 +30 03 24.53476
 2018-Sep-04 09:11     11 32 24.061063 +30 03 24.19436
 2018-Sep-04 09:12     11 32 24.105145 +30 03 23.85398
 2018-Sep-04 09:13     11 32 24.149228 +30 03 23.51361
 2018-Sep-04 09:14     11 32 24.193312 +30 03 23.17325
 2018-Sep-04 09:15     11 32 24.237396 +30 03 22.83292
 2018-Sep-04 09:16     11 32 24.281482 +30 03 22.49260
 2018-Sep-04 09:17     11 32 24.325569 +30 03 22.15229
 2018-Sep-04 09:18     11 32 24.369657 +30 03 21.81200
 2018-Sep-04 09:19     11 32 24.413745 +30 03 21.47173
 2018-Sep-04 09:20     11 32 24.457835 +30 03 21.13147
 2018-Sep-04 09:21     11 32 24.501926 +30 03 20.79123
 2018-Sep-04 09:22     11 32 24.546017 +30 03 20.45101
 2018-Sep-04 09:23     11 32 24.590109 +30 03 20.11080
 2018-Sep-04 09:24     11 32 24.634202 +30 03 19.77061
 2018-Sep-04 09:25     11 32 24.678296 +30 03 19.43043
 2018-Sep-04 09:26     11 32 24.722391 +30 03 19.09027
 2018-Sep-04 09:27     11 32 24.766487 +30 03 18.75013
 2018-Sep-04 09:28     11 32 24.810583 +30 03 18.41000
 2018-Sep-04 09:29     11 32 24.854681 +30 03 18.06989
 2018-Sep-04 09:30     11 32 24.898779 +30 03 17.72979
 2018-Sep-04 09:31     11 32 24.942878 +30 03 17.38972
 2018-Sep-04 09:32     11 32 24.986978 +30 03 17.04965
 2018-Sep-04 09:33     11 32 25.031079 +30 03 16.70961
 2018-Sep-04 09:34     11 32 25.075180 +30 03 16.36958
 2018-Sep-04 09:35     11 32 25.119282 +30 03 16.02957
 2018-Sep-04 09:36     11 32 25.163385 +30 03 15.68957
 2018-Sep-04 09:37     11 32 25.207489 +30 03 15.34959
 2018-Sep-04 09:38     11 32 25.251593 +30 03 15.00963
 2018-Sep-04 09:39     11 32 25.295698 +30 03 14.66969
 2018-Sep-04 09:40     11 32 25.339804 +30 03 14.32976
 2018-Sep-04 09:41     11 32 25.383911 +30 03 13.98985
 2018-Sep-04 09:42     11 32 25.428018 +30 03 13.64995
 2018-Sep-04 09:43     11 32 25.472126 +30 03 13.31007
 2018-Sep-04 09:44     11 32 25.516235 +30 03 12.97021
 2018-Sep-04 09:45     11 32 25.560344 +30 03 12.63036
 2018-Sep-04 09:46     11 32 25.604454 +30 03 12.29053
 2018-Sep-04 09:47     11 32 25.648565 +30 03 11.95072
 2018-Sep-04 09:48     11 32 25.692676 +30 03 11.61093
 2018-Sep-04 09:49     11 32 25.736788 +30 03 11.27115
 2018-Sep-04 09:50     11 32 25.780901 +30 03 10.93139
 2018-Sep-04 09:51     11 32 25.825014 +30 03 10.59164
 2018-Sep-04 09:52     11 32 25.869128 +30 03 10.25192
 2018-Sep-04 09:53     11 32 25.913242 +30 03 09.91220
 2018-Sep-04 09:54     11 32 25.957357 +30 03 09.57251
 2018-Sep-04 09:55     11 32 26.001472 +30 03 09.23283
 2018-Sep-04 09:56     11 32 26.045589 +30 03 08.89317
 2018-Sep-04 09:57     11 32 26.089705 +30 03 08.55353
 2018-Sep-04 09:58     11 32 26.133822 +30 03 08.21391
 2018-Sep-04 09:59     11 32 26.177940 +30 03 07.87430
 2018-Sep-04 10:00     11 32 26.222058 +30 03 07.53471
 2018-Sep-04 10:01     11 32 26.266177 +30 03 07.19513
 2018-Sep-04 10:02     11 32 26.310296 +30 03 06.85557
 2018-Sep-04 10:03     11 32 26.354416 +30 03 06.51603
 2018-Sep-04 10:04     11 32 26.398537 +30 03 06.17651
 2018-Sep-04 10:05     11 32 26.442657 +30 03 05.83700
 2018-Sep-04 10:06     11 32 26.486778 +30 03 05.49751
 2018-Sep-04 10:07     11 32 26.530900 +30 03 05.15804
 2018-Sep-04 10:08     11 32 26.575022 +30 03 04.81859
 2018-Sep-04 10:09     11 32 26.619145 +30 03 04.47915
 2018-Sep-04 10:10     11 32 26.663268 +30 03 04.13973
 2018-Sep-04 10:11     11 32 26.707391 +30 03 03.80033
 2018-Sep-04 10:12     11 32 26.751515 +30 03 03.46094
 2018-Sep-04 10:13     11 32 26.795639 +30 03 03.12157
 2018-Sep-04 10:14     11 32 26.839763 +30 03 02.78222
 2018-Sep-04 10:15     11 32 26.883888 +30 03 02.44289
 2018-Sep-04 10:16     11 32 26.928014 +30 03 02.10357
 2018-Sep-04 10:17     11 32 26.972139 +30 03 01.76427
 2018-Sep-04 10:18     11 32 27.016265 +30 03 01.42499
 2018-Sep-04 10:19     11 32 27.060392 +30 03 01.08573
 2018-Sep-04 10:20     11 32 27.104518 +30 03 00.74648
 2018-Sep-04 10:21     11 32 27.148645 +30 03 00.40725
 2018-Sep-04 10:22     11 32 27.192772 +30 03 00.06804
 2018-Sep-04 10:23     11 32 27.236900 +30 02 59.72884
 2018-Sep-04 10:24     11 32 27.281028 +30 02 59.38966
 2018-Sep-04 10:25     11 32 27.325156 +30 02 59.05050
 2018-Sep-04 10:26     11 32 27.369284 +30 02 58.71136
 2018-Sep-04 10:27     11 32 27.413413 +30 02 58.37224
 2018-Sep-04 10:28     11 32 27.457541 +30 02 58.03313
 2018-Sep-04 10:29     11 32 27.501670 +30 02 57.69404
 2018-Sep-04 10:30     11 32 27.545800 +30 02 57.35496
 2018-Sep-04 10:31     11 32 27.589929 +30 02 57.01591
 2018-Sep-04 10:32     11 32 27.634059 +30 02 56.67687
 2018-Sep-04 10:33     11 32 27.678189 +30 02 56.33785
 2018-Sep-04 10:34     11 32 27.722319 +30 02 55.99885
 2018-Sep-04 10:35     11 32 27.766449 +30 02 55.65986
 2018-Sep-04 10:36     11 32 27.810579 +30 02 55.32089
 2018-Sep-04 10:37     11 32 27.854710 +30 02 54.98194
 2018-Sep-04 10:38     11 32 27.898840 +30 02 54.64301
 2018-Sep-04 10:39     11 32 27.942971 +30 02 54.30409
 2018-Sep-04 10:40     11 32 27.987102 +30 02 53.96520
 2018-Sep-04 10:41     11 32 28.031233 +30 02 53.62632
 2018-Sep-04 10:42     11 32 28.075364 +30 02 53.28745
 2018-Sep-04 10:43     11 32 28.119495 +30 02 52.94861
 2018-Sep-04 10:44     11 32 28.163626 +30 02 52.60978
 2018-Sep-04 10:45  m  11 32 28.207757 +30 02 52.27097
 2018-Sep-04 10:46  m  11 32 28.251889 +30 02 51.93218
 2018-Sep-04 10:47  m  11 32 28.296020 +30 02 51.59340
 2018-Sep-04 10:48  m  11 32 28.340151 +30 02 51.25465
 2018-Sep-04 10:49  m  11 32 28.384283 +30 02 50.91591
 2018-Sep-04 10:50  m  11 32 28.428414 +30 02 50.57718
 2018-Sep-04 10:51  m  11 32 28.472545 +30 02 50.23848
 2018-Sep-04 10:52  m  11 32 28.516677 +30 02 49.89979
 2018-Sep-04 10:53  m  11 32 28.560808 +30 02 49.56112
 2018-Sep-04 10:54  m  11 32 28.604940 +30 02 49.22247
 2018-Sep-04 10:55  m  11 32 28.649071 +30 02 48.88384
 2018-Sep-04 10:56  m  11 32 28.693202 +30 02 48.54522
 2018-Sep-04 10:57  m  11 32 28.737333 +30 02 48.20662
 2018-Sep-04 10:58  m  11 32 28.781464 +30 02 47.86804
